NORAD_CAT_ID,OBJECT_NAME,OBJECT_TYPE,EPOCH,MEAN_MOTION,ECCENTRICITY,INCLINATION,RA_OF_ASC_NODE,ARG_OF_PERICENTER,MEAN_ANOMALY,BSTAR,MEAN_MOTION_DOT,MEAN_MOTION_DDOT,TLE_LINE0,TLE_LINE1,TLE_LINE2,SEMIMAJOR_AXIS,PERIOD,APOGEE,PERIGEE,DECAYED
52615.0,STARLINK-4011,PAYLOAD,2022-11-04 12:57:22,15.088529500000002,0.0002075,53.2184,6.068,35.9811,324.1321,0.00031529,4.735e-05,0.0,0 STARLINK-4011,1 52615U 22052T   22308.53984816  .00004735  00000-0  31529-3 0  9991,2 52615  53.2184   6.0680 0002075  35.9811 324.1321 15.08852950 26428,6917.840999999999,95.437,541.141,538.27,0.0
52615.0,STARLINK-4011,PAYLOAD,2022-11-04 20:54:17,15.0886325,0.0002226,53.2183,4.5811,32.727,327.386,0.00042791,6.533e-05,0.0,0 STARLINK-4011,1 52615U 22052T   22308.87104097  .00006533  00000-0  42791-3 0  9994,2 52615  53.2183   4.5811 0002226  32.7270 327.3860 15.08863250 26471,6917.809,95.436,541.214,538.134,0.0
52615.0,STARLINK-4011,PAYLOAD,2022-11-05 09:37:23,15.08843615,0.0001923,53.2182,2.2023,26.154,333.9549,-4.0134e-05,-9.27e-06,0.0,0 STARLINK-4011,1 52615U 22052T   22309.40096352 -.00000927  00000-0 -40134-4 0  9991,2 52615  53.2182   2.2023 0001923  26.1540 333.9549 15.08843615 26931,6917.869000000002,95.437,541.065,538.404,0.0
52615.0,STARLINK-4011,PAYLOAD,2022-11-05 12:48:10,15.08824954,0.0002353,53.2184,1.6076,31.9123,328.2012,-0.00040251,-6.686e-05,0.0,0 STARLINK-4011,1 52615U 22052T   22309.53345215 -.00006686  00000-0 -40251-3 0  9997,2 52615  53.2184   1.6076 0002353  31.9123 328.2012 15.08824954 26570,6917.926,95.439,541.419,538.164,0.0
52615.0,STARLINK-4011,PAYLOAD,2022-11-05 15:58:56,15.0881965,0.0002402,53.2184,1.0134,31.5856,328.5279,-0.00046812,-7.727e-05,0.0,0 STARLINK-4011,1 52615U 22052T   22309.66593519 -.00007727  00000-0 -46812-3 0  9999,2 52615  53.2184   1.0134 0002402  31.5856 328.5279 15.08819650 26972,6917.943,95.439,541.469,538.146,0.0
52615.0,STARLINK-4011,PAYLOAD,2022-11-05 20:45:06,15.08825563,0.0001975,53.2184,0.121,26.6828,333.4266,-0.00031926,-5.364e-05,0.0,0 STARLINK-4011,1 52615U 22052T   22309.86465347 -.00005364  00000-0 -31926-3 0  9993,2 52615  53.2184   0.1210 0001975  26.6828 333.4266 15.08825563 27001,6917.925,95.438,541.156,538.423,0.0
52615.0,STARLINK-4011,PAYLOAD,2022-11-06 11:03:34,15.08843351,0.0002363,53.2183,357.4452,37.0261,323.0894,0.00017139,2.441e-05,0.0,0 STARLINK-4011,1 52615U 22052T   22310.46081183  .00002441  00000-0  17139-3 0  9994,2 52615  53.2183 357.4452 0002363  37.0261 323.0894 15.08843351 27091,6917.87,95.437,541.37,538.1,0.0
52615.0,STARLINK-4011,PAYLOAD,2022-11-07 09:18:58,15.08842384,0.0002593,53.219,353.2843,29.5486,330.5652,0.00039455,5.997e-05,0.0,0 STARLINK-4011,1 52615U 22052T   22311.38817618  .00005997  00000-0  39455-3 0  9990,2 52615  53.2190 353.2843 0002593  29.5486 330.5652 15.08842384 27233,6917.873000000001,95.437,541.5319999999998,537.944,0.0
52615.0,STARLINK-4011,PAYLOAD,2022-11-07 20:26:40,15.08844429,0.0002419,53.2183,351.2012,32.3297,327.7843,0.00035345,5.342e-05,0.0,0 STARLINK-4011,1 52615U 22052T   22311.85185562  .00005342  00000-0  35345-3 0  9996,2 52615  53.2183 351.2012 0002419  32.3297 327.7843 15.08844429 26927,6917.8669999999975,95.437,541.405,538.058,0.0
52615.0,STARLINK-4011,PAYLOAD,2022-11-08 09:09:44,15.088532699999998,0.0002335,53.2181,348.82199999999995,30.2779,329.8348,0.00035333,5.342e-05,0.0,0 STARLINK-4011,1 52615U 22052T   22312.38176889  .00005342  00000-0  35333-3 0  9994,2 52615  53.2181 348.8220 0002335  30.2779 329.8348 15.08853270 27004,6917.84,95.437,541.32,538.09,0.0
52615.0,STARLINK-4011,PAYLOAD,2022-11-08 13:55:54,15.08853742,0.0002357,53.218,347.9297,31.1814,328.9318,0.0002843,4.241e-05,0.0,0 STARLINK-4011,1 52615U 22052T   22312.58048759  .00004241  00000-0  28430-3 0  9997,2 52615  53.2180 347.9297 0002357  31.1814 328.9318 15.08853742 27417,6917.8380000000025,95.437,541.3340000000002,538.073,0.0
52615.0,STARLINK-4011,PAYLOAD,2022-11-09 02:38:58,15.08869877,0.0002349,53.2177,345.5513,29.6603,330.4522,0.00052381,8.065e-05,0.0,0 STARLINK-4011,1 52615U 22052T   22313.11039623  .00008065  00000-0  52381-3 0  9997,2 52615  53.2177 345.5513 0002349  29.6603 330.4522 15.08869877 27496,6917.7890000000025,95.436,541.279,538.029,0.0
52615.0,STARLINK-4011,PAYLOAD,2022-11-09 09:00:30,15.08853604,0.0002529,53.2183,344.3627,32.9727,327.1423,-8.9645e-05,-1.716e-05,0.0,0 STARLINK-4011,1 52615U 22052T   22313.37535624 -.00001716  00000-0 -89645-4 0  9999,2 52615  53.2183 344.3627 0002529  32.9727 327.1423 15.08853604 27539,6917.839,95.437,541.453,537.9540000000002,0.0
52615.0,STARLINK-4011,PAYLOAD,2022-11-09 12:11:17,15.08822019,0.000281,53.2185,343.7671,30.3322,329.7832,-0.00090384,-0.00014638,0.0,0 STARLINK-4011,1 52615U 22052T   22313.50784663 -.00014638  00000-0 -90384-3 0  9991,2 52615  53.2185 343.7671 0002810  30.3322 329.7832 15.08822019 27177,6917.935,95.439,541.744,537.856,0.0
52615.0,STARLINK-4011,PAYLOAD,2022-11-09 13:46:41,15.08820856,0.0002818,53.2185,343.4698,30.7228,329.3928,-0.00090276,-0.00014621,0.0,0 STARLINK-4011,1 52615U 22052T   22313.57408743 -.00014621  00000-0 -90276-3 0  9992,2 52615  53.2185 343.4698 0002818  30.7228 329.3928 15.08820856 27562,6917.939,95.439,541.753,537.854,0.0
52615.0,STARLINK-4011,PAYLOAD,2022-11-10 12:02:06,15.08818287,0.0002453,53.2181,339.3065,33.1608,326.9537,0.00055014,8.473e-05,0.0,0 STARLINK-4011,1 52615U 22052T   22314.50146098  .00008473  00000-0  55014-3 0  9995,2 52615  53.2181 339.3065 0002453  33.1608 326.9537 15.08818287 27322,6917.946999999999,95.439,541.509,538.115,0.0
52615.0,STARLINK-4011,PAYLOAD,2022-11-10 13:37:29,15.08820769,0.0002451,53.2181,339.009,33.562,326.5527,0.00074329,0.00011555,0.0,0 STARLINK-4011,1 52615U 22052T   22314.56770220  .00011555  00000-0  74329-3 0  9996,2 52615  53.2181 339.0090 0002451  33.5620 326.5527 15.08820769 27719,6917.939,95.439,541.5,538.109,0.0
52615.0,STARLINK-4011,PAYLOAD,2022-11-10 18:23:39,15.08822081,0.0002474,53.218,338.1168,34.0086,326.1064,0.00084538,0.00013185,0.0,0 STARLINK-4011,1 52615U 22052T   22314.76642593  .00013185  00000-0  84538-3 0  9993,2 52615  53.2180 338.1168 0002474  34.0086 326.1064 15.08822081 27363,6917.935,95.439,541.512,538.089,0.0
52615.0,STARLINK-4011,PAYLOAD,2022-11-11 08:42:08,15.08821207,0.0002463,53.2181,335.4412,36.1491,323.9667,0.00039814,6.051e-05,0.0,0 STARLINK-4011,1 52615U 22052T   22315.36259564  .00006051  00000-0  39814-3 0  9993,2 52615  53.2181 335.4412 0002463  36.1491 323.9667 15.08821207 27832,6917.938,95.439,541.507,538.099,0.0
52615.0,STARLINK-4011,PAYLOAD,2022-11-11 11:52:54,15.08825534,0.0002474,53.218,334.8463,36.0083,324.1076,0.00052956,8.147e-05,0.0,0 STARLINK-4011,1 52615U 22052T   22315.49507690  .00008147  00000-0  52956-3 0  9993,2 52615  53.2180 334.8463 0002474  36.0083 324.1076 15.08825534 27472,6917.925,95.438,541.501,538.078,0.0
52615.0,STARLINK-4011,PAYLOAD,2022-11-11 18:14:27,15.08834245,0.0002478,53.2178,333.6568,36.6552,323.4609,0.00076726,0.00011942,0.0,0 STARLINK-4011,1 52615U 22052T   22315.76003813  .00011942  00000-0  76726-3 0  9999,2 52615  53.2178 333.6568 0002478  36.6552 323.4609 15.08834245 27511,6917.898,95.438,541.477,538.049,0.0
52615.0,STARLINK-4011,PAYLOAD,2022-11-12 11:43:41,15.0886011,0.0002501,53.2176,330.3858,38.3947,321.7222,0.00090302,0.00014121,0.0,0 STARLINK-4011,1 52615U 22052T   22316.48867237  .00014121  00000-0  90302-3 0  9995,2 52615  53.2176 330.3858 0002501  38.3947 321.7222 15.08860110 27623,6917.819,95.436,541.414,537.9540000000002,0.0
52615.0,STARLINK-4011,PAYLOAD,2022-11-12 18:05:13,15.0885048,0.0002691,53.2176,329.1959,42.7452,317.3749,0.00036459,5.521e-05,0.0,0 STARLINK-4011,1 52615U 22052T   22316.75363290  .00005521  00000-0  36459-3 0  9992,2 52615  53.2176 329.1959 0002691  42.7452 317.3749 15.08850480 27669,6917.848000000001,95.437,541.575,537.852,0.0
52615.0,STARLINK-4011,PAYLOAD,2022-11-13 09:59:04,15.08848091,0.0002318,53.2173,326.2226,33.0924,327.0212,6.0524e-05,6.75e-06,0.0,0 STARLINK-4011,1 52615U 22052T   22317.41602757  .00000675  00000-0  60524-4 0  9996,2 52615  53.2173 326.2226 0002318  33.0924 327.0212 15.08848091 28146,6917.856,95.437,541.3240000000002,538.117,0.0
52615.0,STARLINK-4011,PAYLOAD,2022-11-13 17:56:00,15.08835464,0.0002537,53.2175,324.7357,38.8712,321.2462,-0.00016543,-2.92e-05,0.0,0 STARLINK-4011,1 52615U 22052T   22317.74723216 -.00002920  00000-0 -16543-3 0  9994,2 52615  53.2175 324.7357 0002537  38.8712 321.2462 15.08835464 28195,6917.894,95.438,541.514,538.004,0.0
52615.0,STARLINK-4011,PAYLOAD,2022-11-14 08:14:28,15.08847889,0.0002409,53.2179,322.0592,37.8035,322.3126,0.00041092,6.259e-05,0.0,0 STARLINK-4011,1 52615U 22052T   22318.34339009  .00006259  00000-0  41092-3 0  9998,2 52615  53.2179 322.0592 0002409  37.8035 322.3126 15.08847889 28289,6917.856,95.437,541.388,538.055,0.0
52615.0,STARLINK-4011,PAYLOAD,2022-11-14 17:46:48,15.08837855,0.0002467,53.2172,320.2756,36.0866,324.0292,0.00018587,2.671e-05,0.0,0 STARLINK-4011,1 52615U 22052T   22318.74083428  .00002671  00000-0  18587-3 0  9990,2 52615  53.2172 320.2756 0002467  36.0866 324.0292 15.08837855 28343,6917.887,95.438,541.4590000000002,538.045,0.0
52615.0,STARLINK-4011,PAYLOAD,2022-11-15 11:16:02,15.08838644,0.0002636,53.2175,317.0049,34.8987,325.2177,0.00012279,1.666e-05,0.0,0 STARLINK-4011,1 52615U 22052T   22319.46947463  .00001666  00000-0  12279-3 0  9993,2 52615  53.2175 317.0049 0002636  34.8987 325.2177 15.08838644 28075,6917.885,95.438,541.573,537.9259999999998,0.0
52615.0,STARLINK-4011,PAYLOAD,2022-11-15 23:59:07,15.088441,0.0002583,53.2172,314.6258,33.5331,326.5824,0.00020035,2.902e-05,0.0,0 STARLINK-4011,1 52615U 22052T   22319.99939272  .00002902  00000-0  20035-3 0  9993,2 52615  53.2172 314.6258 0002583  33.5331 326.5824 15.08844100 28535,6917.868,95.437,541.52,537.946,0.0
